[
    {
        "Altitude(m)": 607911.0235786049,
        "Argument of Periapsis(deg)": 0.0,
        "Eccentricity": 0.0,
        "Inclination(deg)": 60.0,
        "Latitude(deg)": -14.293026211583403,
        "Longitude(deg)": -111.55736052947573,
        "Mean Anomaly(deg)": 196.36360000000002,
        "RAAN(deg)": 160.0,
        "Satellite Name": "Test1 716",
        "Satellite Number": 716,
        "Semi-Major Axis(m)": 6980739.136638005,
        "Time(s)": 0
    },
    {
        "Altitude(m)": 608060.2576968742,
        "Argument of Periapsis(deg)": 0.00010418945913296404,
        "Eccentricity": 0.0,
        "Inclination(deg)": 60.0,
        "Latitude(deg)": -14.826687768897074,
        "Longitude(deg)": -111.26875129536432,
        "Mean Anomaly(deg)": 196.9837061454618,
        "RAAN(deg)": 159.99957995086024,
        "Satellite Name": "Test1 716",
        "Satellite Number": 716,
        "Semi-Major Axis(m)": 6980739.136638005,
        "Time(s)": 10
    }
]